AMC-18                  
1 29644U 06054B   16232.51710494 -.00000106  00000-0  00000+0 0  9992
2 29644   0.0643 283.4188 0002733 219.5594 266.5169  1.00271618 35575
MEASAT-3                
1 29648U 06056A   16232.81770927 -.00000258  00000-0  00000-0 0  9997
2 29648   0.0308 142.5601 0003835   6.2894 205.6198  1.00271247 14470
KIKU-8 (ETS-VIII)       
1 29656U 06059A   16232.85257264 -.00000256  00000-0  00000+0 0  9994
2 29656   5.0112  60.9294 0004771  71.7062 288.5970  1.00272400 35464
INSAT-4B                
1 30793U 07007A   16232.81776264 -.00000274  00000-0  00000+0 0  9994
2 30793   0.5219  89.5844 0004482 132.0124 134.8728  1.00269244 34581
SKYNET 5A               
1 30794U 07007B   16232.81780838 -.00000288  00000-0  00000-0 0  9993
2 30794   0.0683  10.8220 0003670 152.5116 194.8602  1.00271019 34718
ANIK F3                 
1 31102U 07009A   16232.46246522 -.00000017  00000-0  00000+0 0  9996
2 31102   0.0170 137.9276 0002274  23.1520 214.9530  1.00272957 34352
ASTRA 1L                
1 31306U 07016A   16232.81575016  .00000103  00000-0  00000+0 0  9997
2 31306   0.0945 295.5928 0001627 266.8269  79.0071  1.00272282 34058
GALAXY 17 (G-17)        
1 31307U 07016B   16233.39241626 -.00000191  00000-0  00000+0 0  9997
2 31307   0.0318  60.6493 0003443  97.5855 221.1777  1.00270850 34107
ZHONGXING-6B            
1 31800U 07031A   16232.97036757 -.00000378  00000-0  00000+0 0  9999
2 31800   0.0246 115.9377 0003084  43.2646 274.3848  1.00271623 33496
DIRECTV 10              
1 31862U 07032A   16231.37689596 -.00000117  00000-0  00000+0 0  9997
2 31862   0.0176 273.9138 0000456 242.3779 203.7104  1.00270144 33415
SPACEWAY 3              
1 32018U 07036A   16233.43924727 -.00000169  00000-0  00000+0 0  9999
2 32018   0.0032  67.9358 0000309 101.8066 222.6274  1.00271877 33153
BSAT-3A                 
1 32019U 07036B   16232.78217939 -.00000367  00000-0  00000+0 0  9997
2 32019   0.0830 251.9664 0004391 301.9927 166.0280  1.00269765 33082
INSAT-4CR               
1 32050U 07037A   16232.81722140 -.00000094  00000-0  00000+0 0  9999
2 32050   0.0578 280.8014 0005485 324.7635  91.2342  1.00271296 32865
OPTUS D2                
1 32252U 07044A   16233.30279160 -.00000201  00000-0  00000+0 0  9995
2 32252   0.0281 355.0081 0003503 154.7112  80.3412  1.00271492 32460
INTELSAT 11 (IS-11)     
1 32253U 07044B   16233.31337432 -.00000286  00000-0  00000+0 0  9997
2 32253   0.0502 265.0554 0003110 251.4478 242.3768  1.00272093 32558
STAR ONE C1             
1 32293U 07056A   16233.26663531 -.00000294  00000-0  00000+0 0  9999
2 32293   0.0319 289.6539 0003099 228.1280 202.2307  1.00273456 32133
SKYNET 5B               
1 32294U 07056B   16232.91369008  .00000125  00000-0  00000-0 0  9996
2 32294   0.0701  10.4132 0003532 141.8592 170.4135  1.00272125 32246
ASTRA 4A (SIRIUS 4)     
1 32299U 07057A   16232.79725959  .00000016  00000-0  00000-0 0  9998
2 32299   0.0571 295.2802 0002799 216.4753 108.6194  1.00271162 15727
HORIZONS-2              
1 32388U 07063B   16232.85876154 -.00000199  00000-0  00000-0 0  9998
2 32388   0.0130  88.2983 0003205  62.0913 212.2337  1.00272731 31871
THURAYA-3               
1 32404U 08001A   16231.82193113 -.00000311  00000-0  00000+0 0  9998
2 32404   4.1903 350.6818 0004723 157.8348 213.4806  1.00273117 31544
EXPRESS-AM33            
1 32478U 08003A   16232.45897242 -.00000296  00000-0  00000+0 0  9997
2 32478   0.0383 264.1873 0000877  18.6183 307.1332  1.00270288 31630
THOR 5                  
1 32487U 08006A   16233.30799311 -.00000026  00000-0  00000+0 0  9994
2 32487   0.0500 268.3111 0002565 244.1597 286.7189  1.00271322 31208
KIZUNA (WINDS)          
1 32500U 08007A   16232.74537322 -.00000275  00000-0  00000+0 0  9996
2 32500   0.1986  93.1220 0002386  28.1231 258.5892  1.00273415 31050
AMC-14                  
1 32708U 08011A   16232.22649257  .00000089  00000-0  00000+0 0  9997
2 32708  18.5559  67.4993 0037773   9.1867 350.8518  1.00273684 32119
DIRECTV 11              
1 32729U 08013A   16233.51016118 -.00000143  00000-0  00000+0 0  9991
2 32729   0.0026 174.8808 0000428  33.0571 205.7919  1.00273675 30964
ICO G1                  
1 32763U 08016A   16233.39237051 -.00000184  00000-0  00000+0 0  9994
2 32763   3.9619 351.4384 0002777 169.9984 216.1077  1.00272725 30494
VINASAT-1               
1 32767U 08018A   16232.72106506 -.00000345  00000-0  00000-0 0  9996
2 32767   0.0187 270.1861 0001933 256.2699 193.5492  1.00270734 30643
STAR ONE C2             
1 32768U 08018B   16230.28865840 -.00000278  00000-0  00000+0 0  9993
2 32768   0.0318 183.6689 0002692 341.0797 195.2587  1.00271211 30545
TIANLIAN 1-01           
1 32779U 08019A   16232.81740435 -.00000156  00000-0  10000-3 0  9999
2 32779   2.1892  77.5155 0031076 219.5977  45.9626  1.00271478 30486
AMOS-3                  
1 32794U 08022A   16233.17623289 -.00000051  00000-0  00000+0 0  9996
2 32794   0.0543 261.0672 0001523 244.2298 243.0773  1.00271498 30477
GALAXY 18 (G-18)        
1 32951U 08024A   16232.43010851  .00000009  00000-0  00000+0 0  9998
2 32951   0.0201 103.4870 0002836  47.1135 209.4148  1.00273032 30108
CHINASAT 9 (ZX 9)       
1 33051U 08028A   16233.55314058 -.00000265  00000-0  00000+0 0  9999
2 33051   0.0041 174.1627 0004120 339.8929 106.5987  1.00271093 30032
SKYNET 5C               
1 33055U 08030A   16233.24585481 -.00000157  00000-0  00000+0 0  9992
2 33055   0.0639 346.9431 0004806 181.2088 231.5314  1.00271471 29926
TURKSAT 3A              
1 33056U 08030B   16233.17185882  .00000129  00000-0  00000+0 0  9994
2 33056   0.0394 171.1923 0005480 345.6268 275.9523  1.00273586 30109
INTELSAT 25 (IS-25)     
1 33153U 08034A   16232.17658256 -.00000240  00000-0  00000+0 0  9990
2 33153   0.0638 275.7286 0003177 234.3476 209.9411  1.00271864 29644
BADR-6                  
1 33154U 08034B   16233.02063078  .00000128  00000-0  00000+0 0  9992
2 33154   0.0562  33.1126 0004044  80.2253 248.8786  1.00269552 29788
ECHOSTAR 11             
1 33207U 08035A   16233.39127908 -.00000074  00000-0  00000+0 0  9996
2 33207   0.0195 244.1979 0003346 276.9973 198.8173  1.00269948 29688
SUPERBIRD-C2            
1 33274U 08038A   16232.74539609 -.00000267  00000-0  00000-0 0  9991
2 33274   0.0591 288.7197 0000979 190.5988 261.4867  1.00273345 69748
AMC-21                  
1 33275U 08038B   16233.34519198  .00000019  00000-0  00000+0 0  9993
2 33275   0.0545 296.1801 0003007 223.7333 168.5473  1.00271698 29487
INMARSAT 4-F3           
1 33278U 08039A   16233.38420970 -.00000153  00000-0  00000+0 0  9990
2 33278   3.0181 358.3949 0002657 154.5845 216.4878  1.00272690 29296
NIMIQ 4                 
1 33373U 08044A   16232.31951297 -.00000236  00000-0  00000+0 0  9997
2 33373   0.0073 103.9498 0002219  52.7294 204.4227  1.00271976 28855
GALAXY 19 (G-19)        
1 33376U 08045A   16233.35527521 -.00000157  00000-0  00000+0 0  9997
2 33376   0.0189 135.1592 0003368  21.2406 203.6149  1.00272623 28865
VENESAT-1               
1 33414U 08055A   16233.32966645 -.00000255  00000-0  00000+0 0  9991
2 33414   0.0223 134.1457 0001763  10.0431 225.5566  1.00273044 28579
ASTRA 1M                
1 33436U 08057A   16233.02063078  .00000103  00000-0  00000+0 0  9993
2 33436   0.0523 283.4943 0005474 219.7482 212.1556  1.00269643 28493
CIEL-2                  
1 33453U 08063A   16233.32834767  .00000041  00000-0  00000+0 0  9994
2 33453   0.0023 298.6037 0003337 227.3160 152.5239  1.00273058 28190
EUTELSAT HOT BIRD 13C   
1 33459U 08065A   16233.05068314  .00000070  00000-0  00000+0 0  9991
2 33459   0.0490  57.8008 0005547  72.8553 229.3914  1.00269807 28270
EUTELSAT 48D            
1 33460U 08065B   16233.10445296  .00000107  00000-0  00000+0 0  9998
2 33460   0.0906 301.4907 0002826 231.0085 242.0404  1.00270361 28134
FENGYUN 2E              
1 33463U 08066A   16233.55268291 -.00000215  00000-0  00000+0 0  9990
2 33463   1.6205  63.5234 0003971 196.7354 354.4127  1.00270508 28114
EXPRESS-AM44            
1 33595U 09007A   16233.03537995 -.00000105  00000-0  00000+0 0  9993
2 33595   0.0278 265.0007 0000489 307.4421 118.0958  1.00272466 27577
NSS-9                   
1 33749U 09008A   16233.33504387  .00000054  00000-0  00000+0 0  9999
2 33749   0.0566 291.0678 0002468 215.5146 126.1904  1.00270740 27588
EUTELSAT HOT BIRD 13D   
1 33750U 09008B   16232.81610845  .00000139  00000-0  00000-0 0  9995
2 33750   0.0171 324.4894 0005625 215.4038 115.5553  1.00271536 27474
TELSTAR 11N             
1 34111U 09009A   16232.18534579 -.00000267  00000-0  00000+0 0  9999
2 34111   0.0219 119.6777 0002753   5.5106 231.9313  1.00267097 27436
EUTELSAT 10A            
1 34710U 09016A   16233.24262564  .00000051  00000-0  00000+0 0  9992
2 34710   0.0675  18.0825 0004584 134.5666 273.6723  1.00272656 26996
SES-7 (PROTOSTAR 2)     
1 34941U 09027A   16232.89834458 -.00000362  00000-0  00000-0 0  9994
2 34941   0.0182  67.3987 0001702 165.5624 167.3690  1.00270804 26656
MEASAT-3A               
1 35362U 09032A   16231.83588632 -.00000256  00000-0  00000+0 0  9992
2 35362   0.0601 245.9550 0002260 301.7959 172.2447  1.00269263 26253
GOES 14                 
1 35491U 09033A   16233.37651757 -.00000108  00000-0  00000+0 0  9992
2 35491   0.3866 270.3913 0007672 288.7317 160.8468  1.00272276 26187
SIRIUS FM-5             
1 35493U 09034A   16233.32946064 -.00000218  00000-0  00000+0 0  9990
2 35493   0.0107  92.3008 0000677 335.5865 293.6522  1.00279631 26007
TERRESTAR-1             
1 35496U 09035A   16232.33904156 -.00000068  00000-0  00000+0 0  9993
2 35496   3.1432 338.8425 0002643 173.8929 186.4141  1.00271822 26173
ASIASAT 5               
1 35696U 09042A   16232.84655522 -.00000324  00000-0  00000+0 0  9994
2 35696   0.0112 199.2327 0001967 266.9489 267.7014  1.00272779 25699
